[{"OBJECT_NAME":"STARLINK-30053","OBJECT_ID":"2023-067N","EPOCH":"2026-03-09T21:54:52.196832","MEAN_MOTION":15.27575762,"ECCENTRICITY":0.00014499,"INCLINATION":43.0001,"RA_OF_ASC_NODE":269.8467,"ARG_OF_PERICENTER":267.8303,"MEAN_ANOMALY":92.2383,"EPHEMERIS_TYPE":0,"CLASSIFICATION_TYPE":"U","NORAD_CAT_ID":56700,"ELEMENT_SET_NO":999,"REV_AT_EPOCH":15573,"BSTAR":9.1684946e-5,"MEAN_MOTION_DOT":2.261e-5,"MEAN_MOTION_DDOT":0},{"OBJECT_NAME":"TIANMU-1 10","OBJECT_ID":"2023-101D","EPOCH":"2026-03-09T23:06:46.939392","MEAN_MOTION":15.2921896,"ECCENTRICITY":0.00069292,"INCLINATION":97.2749,"RA_OF_ASC_NODE":122.1027,"ARG_OF_PERICENTER":133.6162,"MEAN_ANOMALY":226.5654,"EPHEMERIS_TYPE":0,"CLASSIFICATION_TYPE":"U","NORAD_CAT_ID":57402,"ELEMENT_SET_NO":999,"REV_AT_EPOCH":14647,"BSTAR":0.00032238884,"MEAN_MOTION_DOT":9.075e-5,"MEAN_MOTION_DDOT":0}]
